<?xml version="1.0" encoding="UTF-8"?>
<ndm xmlns:xsi="http://www.w3.org/2001/XMLSchema-instance" xsi:noNamespaceSchemaLocation="https://sanaregistry.org/r/ndmxml_unqualified/ndmxml-2.0.0-master-2.0.xsd">
<omm id="CCSDS_OMM_VERS" version="2.0">
<header><CREATION_DATE/><ORIGINATOR/></header><body><segment><metadata><OBJECT_NAME>KUIPER-00079</OBJECT_NAME><OBJECT_ID>2025-151L</OBJECT_ID><CENTER_NAME>EARTH</CENTER_NAME><REF_FRAME>TEME</REF_FRAME><TIME_SYSTEM>UTC</TIME_SYSTEM><MEAN_ELEMENT_THEORY>SGP4</MEAN_ELEMENT_THEORY></metadata><data><meanElements><EPOCH>2025-10-08T22:10:15.338496</EPOCH><MEAN_MOTION>14.79902172</MEAN_MOTION><ECCENTRICITY>.00124136</ECCENTRICITY><INCLINATION>51.8993</INCLINATION><RA_OF_ASC_NODE>251.3818</RA_OF_ASC_NODE><ARG_OF_PERICENTER>89.3720</ARG_OF_PERICENTER><MEAN_ANOMALY>270.8664</MEAN_ANOMALY></meanElements><tleParameters><EPHEMERIS_TYPE>0</EPHEMERIS_TYPE><CLASSIFICATION_TYPE>U</CLASSIFICATION_TYPE><NORAD_CAT_ID>64826</NORAD_CAT_ID><ELEMENT_SET_NO>999</ELEMENT_SET_NO><REV_AT_EPOCH>1403</REV_AT_EPOCH><BSTAR>.1179371E-3</BSTAR><MEAN_MOTION_DOT>.675E-5</MEAN_MOTION_DOT><MEAN_MOTION_DDOT>0</MEAN_MOTION_DDOT></tleParameters></data></segment></body></omm>
<omm id="CCSDS_OMM_VERS" version="2.0">
<header><CREATION_DATE/><ORIGINATOR/></header><body><segment><metadata><OBJECT_NAME>KUIPER-00080</OBJECT_NAME><OBJECT_ID>2025-151M</OBJECT_ID><CENTER_NAME>EARTH</CENTER_NAME><REF_FRAME>TEME</REF_FRAME><TIME_SYSTEM>UTC</TIME_SYSTEM><MEAN_ELEMENT_THEORY>SGP4</MEAN_ELEMENT_THEORY></metadata><data><meanElements><EPOCH>2025-10-08T07:28:22.989216</EPOCH><MEAN_MOTION>14.79943850</MEAN_MOTION><ECCENTRICITY>.00060822</ECCENTRICITY><INCLINATION>51.8988</INCLINATION><RA_OF_ASC_NODE>254.3891</RA_OF_ASC_NODE><ARG_OF_PERICENTER>110.3841</ARG_OF_PERICENTER><MEAN_ANOMALY>249.7775</MEAN_ANOMALY></meanElements><tleParameters><EPHEMERIS_TYPE>0</EPHEMERIS_TYPE><CLASSIFICATION_TYPE>U</CLASSIFICATION_TYPE><NORAD_CAT_ID>64827</NORAD_CAT_ID><ELEMENT_SET_NO>999</ELEMENT_SET_NO><REV_AT_EPOCH>1274</REV_AT_EPOCH><BSTAR>.93749676E-3</BSTAR><MEAN_MOTION_DOT>.6935E-4</MEAN_MOTION_DOT><MEAN_MOTION_DDOT>0</MEAN_MOTION_DDOT></tleParameters></data></segment></body></omm>
<omm id="CCSDS_OMM_VERS" version="2.0">
<header><CREATION_DATE/><ORIGINATOR/></header><body><segment><metadata><OBJECT_NAME>KUIPER-00082</OBJECT_NAME><OBJECT_ID>2025-151N</OBJECT_ID><CENTER_NAME>EARTH</CENTER_NAME><REF_FRAME>TEME</REF_FRAME><TIME_SYSTEM>UTC</TIME_SYSTEM><MEAN_ELEMENT_THEORY>SGP4</MEAN_ELEMENT_THEORY></metadata><data><meanElements><EPOCH>2025-10-09T00:00:00.999648</EPOCH><MEAN_MOTION>15.10363745</MEAN_MOTION><ECCENTRICITY>.00058885</ECCENTRICITY><INCLINATION>51.8912</INCLINATION><RA_OF_ASC_NODE>241.1796</RA_OF_ASC_NODE><ARG_OF_PERICENTER>109.1332</ARG_OF_PERICENTER><MEAN_ANOMALY>296.9167</MEAN_ANOMALY></meanElements><tleParameters><EPHEMERIS_TYPE>0</EPHEMERIS_TYPE><CLASSIFICATION_TYPE>U</CLASSIFICATION_TYPE><NORAD_CAT_ID>64828</NORAD_CAT_ID><ELEMENT_SET_NO>999</ELEMENT_SET_NO><REV_AT_EPOCH>480</REV_AT_EPOCH><BSTAR>-.91675672E-1</BSTAR><MEAN_MOTION_DOT>-.1398927E-1</MEAN_MOTION_DOT><MEAN_MOTION_DDOT>0</MEAN_MOTION_DDOT></tleParameters></data></segment></body></omm>
<omm id="CCSDS_OMM_VERS" version="2.0">
<header><CREATION_DATE/><ORIGINATOR/></header><body><segment><metadata><OBJECT_NAME>KUIPER-00083</OBJECT_NAME><OBJECT_ID>2025-151P</OBJECT_ID><CENTER_NAME>EARTH</CENTER_NAME><REF_FRAME>TEME</REF_FRAME><TIME_SYSTEM>UTC</TIME_SYSTEM><MEAN_ELEMENT_THEORY>SGP4</MEAN_ELEMENT_THEORY></metadata><data><meanElements><EPOCH>2025-10-09T00:00:00.999648</EPOCH><MEAN_MOTION>14.84365529</MEAN_MOTION><ECCENTRICITY>.00106955</ECCENTRICITY><INCLINATION>51.8980</INCLINATION><RA_OF_ASC_NODE>246.4349</RA_OF_ASC_NODE><ARG_OF_PERICENTER>103.3591</ARG_OF_PERICENTER><MEAN_ANOMALY>83.3012</MEAN_ANOMALY></meanElements><tleParameters><EPHEMERIS_TYPE>0</EPHEMERIS_TYPE><CLASSIFICATION_TYPE>U</CLASSIFICATION_TYPE><NORAD_CAT_ID>64829</NORAD_CAT_ID><ELEMENT_SET_NO>999</ELEMENT_SET_NO><REV_AT_EPOCH>282</REV_AT_EPOCH><BSTAR>-.36544595E-2</BSTAR><MEAN_MOTION_DOT>-.31116E-3</MEAN_MOTION_DOT><MEAN_MOTION_DDOT>0</MEAN_MOTION_DDOT></tleParameters></data></segment></body></omm>
<omm id="CCSDS_OMM_VERS" version="2.0">
<header><CREATION_DATE/><ORIGINATOR/></header><body><segment><metadata><OBJECT_NAME>KUIPER-00084</OBJECT_NAME><OBJECT_ID>2025-151Q</OBJECT_ID><CENTER_NAME>EARTH</CENTER_NAME><REF_FRAME>TEME</REF_FRAME><TIME_SYSTEM>UTC</TIME_SYSTEM><MEAN_ELEMENT_THEORY>SGP4</MEAN_ELEMENT_THEORY></metadata><data><meanElements><EPOCH>2025-10-08T22:41:59.698176</EPOCH><MEAN_MOTION>14.79254706</MEAN_MOTION><ECCENTRICITY>.00118474</ECCENTRICITY><INCLINATION>51.8988</INCLINATION><RA_OF_ASC_NODE>256.5601</RA_OF_ASC_NODE><ARG_OF_PERICENTER>77.3773</ARG_OF_PERICENTER><MEAN_ANOMALY>282.8513</MEAN_ANOMALY></meanElements><tleParameters><EPHEMERIS_TYPE>0</EPHEMERIS_TYPE><CLASSIFICATION_TYPE>U</CLASSIFICATION_TYPE><NORAD_CAT_ID>64830</NORAD_CAT_ID><ELEMENT_SET_NO>999</ELEMENT_SET_NO><REV_AT_EPOCH>1276</REV_AT_EPOCH><BSTAR>.85190183E-3</BSTAR><MEAN_MOTION_DOT>.6181E-4</MEAN_MOTION_DOT><MEAN_MOTION_DDOT>0</MEAN_MOTION_DDOT></tleParameters></data></segment></body></omm>
<omm id="CCSDS_OMM_VERS" version="2.0">
<header><CREATION_DATE/><ORIGINATOR/></header><body><segment><metadata><OBJECT_NAME>KUIPER-00085</OBJECT_NAME><OBJECT_ID>2025-151R</OBJECT_ID><CENTER_NAME>EARTH</CENTER_NAME><REF_FRAME>TEME</REF_FRAME><TIME_SYSTEM>UTC</TIME_SYSTEM><MEAN_ELEMENT_THEORY>SGP4</MEAN_ELEMENT_THEORY></metadata><data><meanElements><EPOCH>2025-10-08T21:18:36.279360</EPOCH><MEAN_MOTION>15.09397225</MEAN_MOTION><ECCENTRICITY>.00105072</ECCENTRICITY><INCLINATION>51.8946</INCLINATION><RA_OF_ASC_NODE>241.8497</RA_OF_ASC_NODE><ARG_OF_PERICENTER>104.8681</ARG_OF_PERICENTER><MEAN_ANOMALY>255.3458</MEAN_ANOMALY></meanElements><tleParameters><EPHEMERIS_TYPE>0</EPHEMERIS_TYPE><CLASSIFICATION_TYPE>U</CLASSIFICATION_TYPE><NORAD_CAT_ID>64831</NORAD_CAT_ID><ELEMENT_SET_NO>999</ELEMENT_SET_NO><REV_AT_EPOCH>1296</REV_AT_EPOCH><BSTAR>-.20588655E-2</BSTAR><MEAN_MOTION_DOT>-.33483E-3</MEAN_MOTION_DOT><MEAN_MOTION_DDOT>0</MEAN_MOTION_DDOT></tleParameters></data></segment></body></omm>
<omm id="CCSDS_OMM_VERS" version="2.0">
<header><CREATION_DATE/><ORIGINATOR/></header><body><segment><metadata><OBJECT_NAME>KUIPER-00086</OBJECT_NAME><OBJECT_ID>2025-151S</OBJECT_ID><CENTER_NAME>EARTH</CENTER_NAME><REF_FRAME>TEME</REF_FRAME><TIME_SYSTEM>UTC</TIME_SYSTEM><MEAN_ELEMENT_THEORY>SGP4</MEAN_ELEMENT_THEORY></metadata><data><meanElements><EPOCH>2025-10-08T07:32:25.893312</EPOCH><MEAN_MOTION>14.79964768</MEAN_MOTION><ECCENTRICITY>.00118964</ECCENTRICITY><INCLINATION>51.9014</INCLINATION><RA_OF_ASC_NODE>251.8808</RA_OF_ASC_NODE><ARG_OF_PERICENTER>98.9817</ARG_OF_PERICENTER><MEAN_ANOMALY>261.2492</MEAN_ANOMALY></meanElements><tleParameters><EPHEMERIS_TYPE>0</EPHEMERIS_TYPE><CLASSIFICATION_TYPE>U</CLASSIFICATION_TYPE><NORAD_CAT_ID>64832</NORAD_CAT_ID><ELEMENT_SET_NO>999</ELEMENT_SET_NO><REV_AT_EPOCH>1277</REV_AT_EPOCH><BSTAR>.79751856E-3</BSTAR><MEAN_MOTION_DOT>.5872E-4</MEAN_MOTION_DOT><MEAN_MOTION_DDOT>0</MEAN_MOTION_DDOT></tleParameters></data></segment></body></omm>
<omm id="CCSDS_OMM_VERS" version="2.0">
<header><CREATION_DATE/><ORIGINATOR/></header><body><segment><metadata><OBJECT_NAME>KUIPER-00087</OBJECT_NAME><OBJECT_ID>2025-151T</OBJECT_ID><CENTER_NAME>EARTH</CENTER_NAME><REF_FRAME>TEME</REF_FRAME><TIME_SYSTEM>UTC</TIME_SYSTEM><MEAN_ELEMENT_THEORY>SGP4</MEAN_ELEMENT_THEORY></metadata><data><meanElements><EPOCH>2025-10-09T00:00:00.999648</EPOCH><MEAN_MOTION>15.29347204</MEAN_MOTION><ECCENTRICITY>.00082256</ECCENTRICITY><INCLINATION>51.8800</INCLINATION><RA_OF_ASC_NODE>238.8667</RA_OF_ASC_NODE><ARG_OF_PERICENTER>105.9064</ARG_OF_PERICENTER><MEAN_ANOMALY>341.1814</MEAN_ANOMALY></meanElements><tleParameters><EPHEMERIS_TYPE>0</EPHEMERIS_TYPE><CLASSIFICATION_TYPE>U</CLASSIFICATION_TYPE><NORAD_CAT_ID>64833</NORAD_CAT_ID><ELEMENT_SET_NO>999</ELEMENT_SET_NO><REV_AT_EPOCH>481</REV_AT_EPOCH><BSTAR>-.25438434E-1</BSTAR><MEAN_MOTION_DOT>-.681736E-2</MEAN_MOTION_DOT><MEAN_MOTION_DDOT>0</MEAN_MOTION_DDOT></tleParameters></data></segment></body></omm>

</ndm>
