KUIPER-00079            
1 64826U 25151L   25281.92378864  .00000675  00000+0  11794-3 0  9997
2 64826  51.8993 251.3818 0012413  89.3720 270.8664 14.79902172 14034
KUIPER-00080            
1 64827U 25151M   25281.31137719  .00006935  00000+0  93750-3 0  9990
2 64827  51.8988 254.3891 0006082 110.3841 249.7775 14.79943850 12749
KUIPER-00082            
1 64828U 25151N   25282.00001157 -.01398927  00000+0 -91676-1 0  9995
2 64828  51.8912 241.1796 0005888 109.1332 296.9167 15.10363745  4801
KUIPER-00083            
1 64829U 25151P   25282.00001157 -.00031116  00000+0 -36545-2 0  9994
2 64829  51.8980 246.4349 0010695 103.3591  83.3012 14.84365529  2823
KUIPER-00084            
1 64830U 25151Q   25281.94582984  .00006181  00000+0  85190-3 0  9993
2 64830  51.8988 256.5601 0011847  77.3773 282.8513 14.79254706 12762
KUIPER-00085            
1 64831U 25151R   25281.88791990 -.00033483  00000+0 -20589-2 0  9993
2 64831  51.8946 241.8497 0010507 104.8681 255.3458 15.09397225 12966
KUIPER-00086            
1 64832U 25151S   25281.31418858  .00005872  00000+0  79752-3 0  9997
2 64832  51.9014 251.8808 0011896  98.9817 261.2492 14.79964768 12778
KUIPER-00087            
1 64833U 25151T   25282.00001157 -.00681736  00000+0 -25438-1 0  9996
2 64833  51.8800 238.8667 0008225 105.9064 341.1814 15.29347204  4812
